ONEWEB-0456             
1 51646U 22012AA  23356.60504251  .00000666  00000+0  18710-2 0  9997
2 51646  87.8900 216.5161 0001649  94.2680 265.8636 13.10378600 90483
ONEWEB-0457             
1 51647U 22012AB  23356.58227539 -.00000375  00000+0 -11113-2 0  9995
2 51647  87.8913 216.5279 0001474  61.1848 298.9427 13.10377362 90482
ONEWEB-0458             
1 51648U 22012AC  23356.60341320  .00000685  00000+0  19261-2 0  9998
2 51648  87.8913 216.5366 0001202  84.6611 275.4653 13.10374528 90445
ONEWEB-0461             
1 51649U 22012AD  23356.56379383  .00004842  00000+0  12469-1 0  9995
2 51649  87.9203 186.3140 0002340  90.2057 269.9342 13.17440803 94369
ONEWEB-0463             
1 51650U 22012AE  23356.62234361  .00005005  00000+0  12871-1 0  9999
2 51650  87.9207 186.3420 0002627 106.0147 254.1274 13.17541909 94156
ONEWEB-0464             
1 51651U 22012AF  23356.60014454  .00000530  00000+0  14810-2 0  9991
2 51651  87.8913 216.5260 0001433  98.6195 261.5095 13.10377791 90463
ONEWEB-0468             
1 51652U 22012AG  23356.60664554  .00000676  00000+0  18986-2 0  9993
2 51652  87.8910 216.5178 0001308  84.8963 275.2314 13.10379206 90447
ONEWEB-0473             
1 51653U 22012AH  23356.59201890 -.00000400  00000+0 -11810-2 0  9998
2 51653  87.8913 216.5245 0001253  85.9706 274.1564 13.10373884 90443
